0 GLOBALSTAR M084
1 38040U 11080A   24188.84401271 -.00000096  00000-0  45208-4 0  9994
2 38040  52.0025  19.8241 0000984  70.3076  58.7743 12.62263959579055
0 GLOBALSTAR M082
1 38042U 11080C   24188.83876559 -.00000099  00000-0  27095-4 0  9997
2 38042  52.0093 336.7359 0001283 124.7067  40.4814 12.62270871579889
0 GLOBALSTAR M090
1 38044U 11080E   24189.10419376 -.00000102  00000-0  76155-5 0  9997
2 38044  51.9906 330.1817 0000954 121.5423  50.1185 12.62264492580078
0 GLOBALSTAR M097
1 39072U 13005A   24189.11966632 -.00000069  00000-0  19582-3 0  9992
2 39072  52.0033 244.8589 0000493 174.8651 185.2221 12.62264273527318
0 GLOBALSTAR M093
1 39073U 13005B   24188.85533586 -.00000074  00000-0  16651-3 0  9991
2 39073  51.9794 239.5166 0000556 189.9609 170.1247 12.62275733527159
